{
  "type": "FeatureCollection",
  "features": [
    {
      "type": "Feature",
      "properties": {
        "norad_id": 30110,
        "name": "FENGYUN 1C DEB",
        "group": "fengyun-1c-debris",
        "lat": -8.565145476654541,
        "lon": 104.59855092874763,
        "alt_km": 866.4287753154294,
        "timestamp": "2025-12-21T05:44:51.859712+00:00",
        "meta_object_name": "FENGYUN 1C DEB",
        "meta_object_id": "1999-025RP",
        "meta_epoch": "2025-12-20T19:09:55.120032",
        "meta_mean_motion": 13.56227998,
        "meta_eccentricity": 0.02673213,
        "meta_inclination": 98.9077,
        "meta_ra_of_asc_node": 102.8459,
        "meta_arg_of_pericenter": 332.2773,
        "meta_mean_anomaly": 26.433,
        "meta_ephemeris_type": 0,
        "meta_classification_type": "U",
        "meta_norad_cat_id": 30110,
        "meta_element_set_no": 999,
        "meta_rev_at_epoch": 93624,
        "meta_bstar": 0.00023109282,
        "meta_mean_motion_dot": 1.64e-06,
        "meta_mean_motion_ddot": 0,
        "tle_line1": "1 30110U 99025RP  25354.79855463  .00000164  00000+0  23109-3 0  9994",
        "tle_line2": "2 30110  98.9077 102.8459 0267321 332.2773  26.4330 13.56227998936248"
      },
      "geometry": {
        "type": "Point",
        "coordinates": [
          104.59855092874763,
          -8.565145476654541
        ]
      }
    },
    {
      "type": "Feature",
      "properties": {
        "norad_id": 30112,
        "name": "FENGYUN 1C DEB",
        "group": "fengyun-1c-debris",
        "lat": 35.687320882489836,
        "lon": -37.10925216947181,
        "alt_km": 715.0392230919415,
        "timestamp": "2025-12-21T05:44:51.859722+00:00",
        "meta_object_name": "FENGYUN 1C DEB",
        "meta_object_id": "1999-025RR",
        "meta_epoch": "2025-12-20T21:08:19.550976",
        "meta_mean_motion": 14.22243793,
        "meta_eccentricity": 0.02019038,
        "meta_inclination": 99.2822,
        "meta_ra_of_asc_node": 329.2587,
        "meta_arg_of_pericenter": 84.5807,
        "meta_mean_anomaly": 277.8365,
        "meta_ephemeris_type": 0,
        "meta_classification_type": "U",
        "meta_norad_cat_id": 30112,
        "meta_element_set_no": 999,
        "meta_rev_at_epoch": 97698,
        "meta_bstar": 0.0004127743,
        "meta_mean_motion_dot": 1.078e-05,
        "meta_mean_motion_ddot": 0,
        "tle_line1": "1 30112U 99025RR  25354.88078184  .00001078  00000+0  41277-3 0  9994",
        "tle_line2": "2 30112  99.2822 329.2587 0201903  84.5807 277.8365 14.22243793976988"
      },
      "geometry": {
        "type": "Point",
        "coordinates": [
          -37.10925216947181,
          35.687320882489836
        ]
      }
    },
    {
      "type": "Feature",
      "properties": {
        "norad_id": 30113,
        "name": "FENGYUN 1C DEB",
        "group": "fengyun-1c-debris",
        "lat": -79.29978937523649,
        "lon": -29.41321921235259,
        "alt_km": 739.430343680966,
        "timestamp": "2025-12-21T05:44:51.859732+00:00",
        "meta_object_name": "FENGYUN 1C DEB",
        "meta_object_id": "1999-025RS",
        "meta_epoch": "2025-12-20T12:13:07.334688",
        "meta_mean_motion": 14.45417894,
        "meta_eccentricity": 0.00405514,
        "meta_inclination": 99.0371,
        "meta_ra_of_asc_node": 207.1905,
        "meta_arg_of_pericenter": 339.4868,
        "meta_mean_anomaly": 86.8458,
        "meta_ephemeris_type": 0,
        "meta_classification_type": "U",
        "meta_norad_cat_id": 30113,
        "meta_element_set_no": 999,
        "meta_rev_at_epoch": 98021,
        "meta_bstar": 0.0012503045,
        "meta_mean_motion_dot": 4.397e-05,
        "meta_mean_motion_ddot": 0,
        "tle_line1": "1 30113U 99025RS  25354.50911267  .00004397  00000+0  12503-2 0  9998",
        "tle_line2": "2 30113  99.0371 207.1905 0040551 339.4868  86.8458 14.45417894980215"
      },
      "geometry": {
        "type": "Point",
        "coordinates": [
          -29.41321921235259,
          -79.29978937523649
        ]
      }
    },
    {
      "type": "Feature",
      "properties": {
        "norad_id": 30114,
        "name": "FENGYUN 1C DEB",
        "group": "fengyun-1c-debris",
        "lat": 39.01353572062057,
        "lon": -9.805118581881667,
        "alt_km": 824.1599535592695,
        "timestamp": "2025-12-21T05:44:51.859742+00:00",
        "meta_object_name": "FENGYUN 1C DEB",
        "meta_object_id": "1999-025RT",
        "meta_epoch": "2025-12-20T18:29:24.477216",
        "meta_mean_motion": 14.09657513,
        "meta_eccentricity": 0.00823442,
        "meta_inclination": 98.7468,
        "meta_ra_of_asc_node": 356.9043,
        "meta_arg_of_pericenter": 97.3289,
        "meta_mean_anomaly": 84.0225,
        "meta_ephemeris_type": 0,
        "meta_classification_type": "U",
        "meta_norad_cat_id": 30114,
        "meta_element_set_no": 999,
        "meta_rev_at_epoch": 97267,
        "meta_bstar": 0.00018804308,
        "meta_mean_motion_dot": 2.98e-06,
        "meta_mean_motion_ddot": 0,
        "tle_line1": "1 30114U 99025RT  25354.77042219  .00000298  00000+0  18804-3 0  9997",
        "tle_line2": "2 30114  98.7468 356.9043 0082344  97.3289  84.0225 14.09657513972675"
      },
      "geometry": {
        "type": "Point",
        "coordinates": [
          -9.805118581881667,
          39.01353572062057
        ]
      }
    },
    {
      "type": "Feature",
      "properties": {
        "norad_id": 30115,
        "name": "FENGYUN 1C DEB",
        "group": "fengyun-1c-debris",
        "lat": 59.778110168633255,
        "lon": 7.207547811860288,
        "alt_km": 775.9592849553237,
        "timestamp": "2025-12-21T05:44:51.859752+00:00",
        "meta_object_name": "FENGYUN 1C DEB",
        "meta_object_id": "1999-025RU",
        "meta_epoch": "2025-12-20T16:31:21.055296",
        "meta_mean_motion": 14.19806388,
        "meta_eccentricity": 0.00674234,
        "meta_inclination": 98.6218,
        "meta_ra_of_asc_node": 21.7679,
        "meta_arg_of_pericenter": 37.9323,
        "meta_mean_anomaly": 87.7238,
        "meta_ephemeris_type": 0,
        "meta_classification_type": "U",
        "meta_norad_cat_id": 30115,
        "meta_element_set_no": 999,
        "meta_rev_at_epoch": 97441,
        "meta_bstar": 0.00068468382,
        "meta_mean_motion_dot": 1.442e-05,
        "meta_mean_motion_ddot": 0,
        "tle_line1": "1 30115U 99025RU  25354.68843814  .00001442  00000+0  68468-3 0  9991",
        "tle_line2": "2 30115  98.6218  21.7679 0067423  37.9323  87.7238 14.19806388974415"
      },
      "geometry": {
        "type": "Point",
        "coordinates": [
          7.207547811860288,
          59.778110168633255
        ]
      }
    },
    {
      "type": "Feature",
      "properties": {
        "norad_id": 30116,
        "name": "FENGYUN 1C DEB",
        "group": "fengyun-1c-debris",
        "lat": -78.52612606626793,
        "lon": 121.6085306080915,
        "alt_km": 789.8267329547643,
        "timestamp": "2025-12-21T05:44:51.859762+00:00",
        "meta_object_name": "FENGYUN 1C DEB",
        "meta_object_id": "1999-025RV",
        "meta_epoch": "2025-12-20T18:58:06.613248",
        "meta_mean_motion": 14.29331485,
        "meta_eccentricity": 0.00206683,
        "meta_inclination": 99.3974,
        "meta_ra_of_asc_node": 66.4485,
        "meta_arg_of_pericenter": 317.555,
        "meta_mean_anomaly": 169.4348,
        "meta_ephemeris_type": 0,
        "meta_classification_type": "U",
        "meta_norad_cat_id": 30116,
        "meta_element_set_no": 999,
        "meta_rev_at_epoch": 97624,
        "meta_bstar": 0.00090415997,
        "meta_mean_motion_dot": 2.257e-05,
        "meta_mean_motion_ddot": 0,
        "tle_line1": "1 30116U 99025RV  25354.79035432  .00002257  00000+0  90416-3 0  9996",
        "tle_line2": "2 30116  99.3974  66.4485 0020668 317.5550 169.4348 14.29331485976248"
      },
      "geometry": {
        "type": "Point",
        "coordinates": [
          121.6085306080915,
          -78.52612606626793
        ]
      }
    },
    {
      "type": "Feature",
      "properties": {
        "norad_id": 30117,
        "name": "FENGYUN 1C DEB",
        "group": "fengyun-1c-debris",
        "lat": -60.09485793765566,
        "lon": 147.83883175651437,
        "alt_km": 808.4595574727291,
        "timestamp": "2025-12-21T05:44:51.859773+00:00",
        "meta_object_name": "FENGYUN 1C DEB",
        "meta_object_id": "1999-025RW",
        "meta_epoch": "2025-12-20T21:52:37.527744",
        "meta_mean_motion": 14.07166802,
        "meta_eccentricity": 0.01640221,
        "meta_inclination": 98.8046,
        "meta_ra_of_asc_node": 343.1524,
        "meta_arg_of_pericenter": 186.1157,
        "meta_mean_anomaly": 193.2063,
        "meta_ephemeris_type": 0,
        "meta_classification_type": "U",
        "meta_norad_cat_id": 30117,
        "meta_element_set_no": 999,
        "meta_rev_at_epoch": 97104,
        "meta_bstar": 0.0002348321,
        "meta_mean_motion_dot": 4.02e-06,
        "meta_mean_motion_ddot": 0,
        "tle_line1": "1 30117U 99025RW  25354.91154546  .00000402  00000+0  23483-3 0  9999",
        "tle_line2": "2 30117  98.8046 343.1524 0164022 186.1157 193.2063 14.07166802971045"
      },
      "geometry": {
        "type": "Point",
        "coordinates": [
          147.83883175651437,
          -60.09485793765566
        ]
      }
    }
  ]
}